[{"OBJECT_NAME":"ONEWEB-0125","OBJECT_ID":"2020-100P","EPOCH":"2026-04-01T11:31:14.464992","MEAN_MOTION":13.1244268,"ECCENTRICITY":0.000152,"INCLINATION":87.902,"RA_OF_ASC_NODE":5.8837,"ARG_OF_PERICENTER":85.0454,"MEAN_ANOMALY":275.0848,"EPHEMERIS_TYPE":0,"CLASSIFICATION_TYPE":"U","NORAD_CAT_ID":47271,"ELEMENT_SET_NO":999,"REV_AT_EPOCH":25457,"BSTAR":-0.0010904,"MEAN_MOTION_DOT":-3.8e-6,"MEAN_MOTION_DDOT":0},{"OBJECT_NAME":"ONEWEB-0126","OBJECT_ID":"2020-100Q","EPOCH":"2026-04-01T12:00:42.938208","MEAN_MOTION":13.12445603,"ECCENTRICITY":0.0001821,"INCLINATION":87.9013,"RA_OF_ASC_NODE":5.9006,"ARG_OF_PERICENTER":74.1944,"MEAN_ANOMALY":285.9386,"EPHEMERIS_TYPE":0,"CLASSIFICATION_TYPE":"U","NORAD_CAT_ID":47272,"ELEMENT_SET_NO":999,"REV_AT_EPOCH":25464,"BSTAR":0.00033063,"MEAN_MOTION_DOT":1.32e-6,"MEAN_MOTION_DDOT":0},{"OBJECT_NAME":"ONEWEB-0127","OBJECT_ID":"2020-100R","EPOCH":"2026-04-01T11:11:44.272896","MEAN_MOTION":13.12442969,"ECCENTRICITY":0.0001877,"INCLINATION":87.9006,"RA_OF_ASC_NODE":5.9101,"ARG_OF_PERICENTER":74.2746,"MEAN_ANOMALY":285.859,"EPHEMERIS_TYPE":0,"CLASSIFICATION_TYPE":"U","NORAD_CAT_ID":47273,"ELEMENT_SET_NO":999,"REV_AT_EPOCH":25466,"BSTAR":-0.00038577,"MEAN_MOTION_DOT":-1.26e-6,"MEAN_MOTION_DDOT":0},{"OBJECT_NAME":"ONEWEB-0128","OBJECT_ID":"2020-100S","EPOCH":"2026-04-01T11:43:25.669920","MEAN_MOTION":13.12443676,"ECCENTRICITY":0.0002075,"INCLINATION":87.9007,"RA_OF_ASC_NODE":5.9193,"ARG_OF_PERICENTER":84.9645,"MEAN_ANOMALY":275.172,"EPHEMERIS_TYPE":0,"CLASSIFICATION_TYPE":"U","NORAD_CAT_ID":47274,"ELEMENT_SET_NO":999,"REV_AT_EPOCH":25468,"BSTAR":-0.0014366,"MEAN_MOTION_DOT":-5.04e-6,"MEAN_MOTION_DDOT":0},{"OBJECT_NAME":"ONEWEB-0129","OBJECT_ID":"2020-100T","EPOCH":"2026-04-01T11:14:09.904416","MEAN_MOTION":13.12443757,"ECCENTRICITY":0.0002445,"INCLINATION":87.9018,"RA_OF_ASC_NODE":5.8894,"ARG_OF_PERICENTER":52.1539,"MEAN_ANOMALY":307.981,"EPHEMERIS_TYPE":0,"CLASSIFICATION_TYPE":"U","NORAD_CAT_ID":47275,"ELEMENT_SET_NO":999,"REV_AT_EPOCH":25461,"BSTAR":-0.0007079,"MEAN_MOTION_DOT":-2.42e-6,"MEAN_MOTION_DDOT":0},{"OBJECT_NAME":"ONEWEB-0130","OBJECT_ID":"2020-100U","EPOCH":"2026-04-01T11:53:11.626944","MEAN_MOTION":13.12445491,"ECCENTRICITY":0.0001872,"INCLINATION":87.9019,"RA_OF_ASC_NODE":5.8784,"ARG_OF_PERICENTER":76.9052,"MEAN_ANOMALY":283.2285,"EPHEMERIS_TYPE":0,"CLASSIFICATION_TYPE":"U","NORAD_CAT_ID":47276,"ELEMENT_SET_NO":999,"REV_AT_EPOCH":25458,"BSTAR":-0.00028712,"MEAN_MOTION_DOT":-9.1e-7,"MEAN_MOTION_DDOT":0},{"OBJECT_NAME":"ONEWEB-0131","OBJECT_ID":"2020-100V","EPOCH":"2026-04-01T11:48:18.666144","MEAN_MOTION":13.12445493,"ECCENTRICITY":0.0001833,"INCLINATION":87.901,"RA_OF_ASC_NODE":5.9056,"ARG_OF_PERICENTER":78.1112,"MEAN_ANOMALY":282.0222,"EPHEMERIS_TYPE":0,"CLASSIFICATION_TYPE":"U","NORAD_CAT_ID":47277,"ELEMENT_SET_NO":999,"REV_AT_EPOCH":25462,"BSTAR":-0.0004645,"MEAN_MOTION_DOT":-1.54e-6,"MEAN_MOTION_DDOT":0},{"OBJECT_NAME":"ONEWEB-0132","OBJECT_ID":"2020-100W","EPOCH":"2026-04-01T12:29:48.147360","MEAN_MOTION":13.12444222,"ECCENTRICITY":0.000184,"INCLINATION":87.9009,"RA_OF_ASC_NODE":5.8998,"ARG_OF_PERICENTER":80.5702,"MEAN_ANOMALY":279.5634,"EPHEMERIS_TYPE":0,"CLASSIFICATION_TYPE":"U","NORAD_CAT_ID":47278,"ELEMENT_SET_NO":999,"REV_AT_EPOCH":25452,"BSTAR":0.0012519,"MEAN_MOTION_DOT":4.63e-6,"MEAN_MOTION_DDOT":0},{"OBJECT_NAME":"ONEWEB-0133","OBJECT_ID":"2020-100X","EPOCH":"2026-04-01T07:24:39.068064","MEAN_MOTION":13.12443452,"ECCENTRICITY":0.0001893,"INCLINATION":87.9021,"RA_OF_ASC_NODE":5.9091,"ARG_OF_PERICENTER":81.8792,"MEAN_ANOMALY":278.2551,"EPHEMERIS_TYPE":0,"CLASSIFICATION_TYPE":"U","NORAD_CAT_ID":47279,"ELEMENT_SET_NO":999,"REV_AT_EPOCH":25465,"BSTAR":-4.0192e-5,"MEAN_MOTION_DOT":-2.0e-8,"MEAN_MOTION_DDOT":0},{"OBJECT_NAME":"ONEWEB-0134","OBJECT_ID":"2020-100Y","EPOCH":"2026-04-01T12:10:16.279104","MEAN_MOTION":13.12445973,"ECCENTRICITY":0.0002086,"INCLINATION":87.9023,"RA_OF_ASC_NODE":5.8668,"ARG_OF_PERICENTER":77.7035,"MEAN_ANOMALY":282.4327,"EPHEMERIS_TYPE":0,"CLASSIFICATION_TYPE":"U","NORAD_CAT_ID":47280,"ELEMENT_SET_NO":999,"REV_AT_EPOCH":25465,"BSTAR":0.0010389,"MEAN_MOTION_DOT":3.86e-6,"MEAN_MOTION_DDOT":0},{"OBJECT_NAME":"ONEWEB-0135","OBJECT_ID":"2020-100Z","EPOCH":"2026-04-01T11:28:47.400960","MEAN_MOTION":13.12441933,"ECCENTRICITY":0.0002121,"INCLINATION":87.901,"RA_OF_ASC_NODE":5.9053,"ARG_OF_PERICENTER":79.7398,"MEAN_ANOMALY":280.397,"EPHEMERIS_TYPE":0,"CLASSIFICATION_TYPE":"U","NORAD_CAT_ID":47281,"ELEMENT_SET_NO":999,"REV_AT_EPOCH":25467,"BSTAR":-0.0010325,"MEAN_MOTION_DOT":-3.59e-6,"MEAN_MOTION_DDOT":0},{"OBJECT_NAME":"ONEWEB-0136","OBJECT_ID":"2020-100AA","EPOCH":"2026-04-01T11:55:38.557056","MEAN_MOTION":13.12443845,"ECCENTRICITY":0.0002138,"INCLINATION":87.9018,"RA_OF_ASC_NODE":5.8766,"ARG_OF_PERICENTER":76.3643,"MEAN_ANOMALY":283.7723,"EPHEMERIS_TYPE":0,"CLASSIFICATION_TYPE":"U","NORAD_CAT_ID":47282,"ELEMENT_SET_NO":999,"REV_AT_EPOCH":25460,"BSTAR":4.8566e-5,"MEAN_MOTION_DOT":3.0e-7,"MEAN_MOTION_DDOT":0},{"OBJECT_NAME":"ONEWEB-0137","OBJECT_ID":"2020-100AB","EPOCH":"2026-04-01T10:54:39.365856","MEAN_MOTION":13.12442148,"ECCENTRICITY":0.0001653,"INCLINATION":87.9022,"RA_OF_ASC_NODE":5.8915,"ARG_OF_PERICENTER":76.7512,"MEAN_ANOMALY":283.38,"EPHEMERIS_TYPE":0,"CLASSIFICATION_TYPE":"U","NORAD_CAT_ID":47283,"ELEMENT_SET_NO":999,"REV_AT_EPOCH":25450,"BSTAR":0.0007326,"MEAN_MOTION_DOT":2.76e-6,"MEAN_MOTION_DDOT":0},{"OBJECT_NAME":"ONEWEB-0138","OBJECT_ID":"2020-100AC","EPOCH":"2026-04-01T12:12:42.471360","MEAN_MOTION":13.12445751,"ECCENTRICITY":0.0001981,"INCLINATION":87.9019,"RA_OF_ASC_NODE":5.889,"ARG_OF_PERICENTER":75.2977,"MEAN_ANOMALY":284.8371,"EPHEMERIS_TYPE":0,"CLASSIFICATION_TYPE":"U","NORAD_CAT_ID":47284,"ELEMENT_SET_NO":999,"REV_AT_EPOCH":25459,"BSTAR":0.00092693,"MEAN_MOTION_DOT":3.46e-6,"MEAN_MOTION_DDOT":0},{"OBJECT_NAME":"ONEWEB-0139","OBJECT_ID":"2020-100AD","EPOCH":"2026-04-01T11:21:40.294656","MEAN_MOTION":13.1244094,"ECCENTRICITY":0.0001825,"INCLINATION":87.9015,"RA_OF_ASC_NODE":5.8834,"ARG_OF_PERICENTER":77.197,"MEAN_ANOMALY":282.9363,"EPHEMERIS_TYPE":0,"CLASSIFICATION_TYPE":"U","NORAD_CAT_ID":47285,"ELEMENT_SET_NO":999,"REV_AT_EPOCH":25466,"BSTAR":-0.00086184,"MEAN_MOTION_DOT":-2.97e-6,"MEAN_MOTION_DDOT":0},{"OBJECT_NAME":"ONEWEB-0140","OBJECT_ID":"2020-100AE","EPOCH":"2026-04-01T12:05:23.834976","MEAN_MOTION":13.12445363,"ECCENTRICITY":0.0001853,"INCLINATION":87.902,"RA_OF_ASC_NODE":5.8664,"ARG_OF_PERICENTER":83.2372,"MEAN_ANOMALY":276.8967,"EPHEMERIS_TYPE":0,"CLASSIFICATION_TYPE":"U","NORAD_CAT_ID":47286,"ELEMENT_SET_NO":999,"REV_AT_EPOCH":25463,"BSTAR":0.00075778,"MEAN_MOTION_DOT":2.85e-6,"MEAN_MOTION_DDOT":0},{"OBJECT_NAME":"ONEWEB-0141","OBJECT_ID":"2020-100AF","EPOCH":"2026-04-01T11:21:16.396416","MEAN_MOTION":13.12441005,"ECCENTRICITY":0.0001534,"INCLINATION":87.9019,"RA_OF_ASC_NODE":5.8785,"ARG_OF_PERICENTER":72.7805,"MEAN_ANOMALY":287.3491,"EPHEMERIS_TYPE":0,"CLASSIFICATION_TYPE":"U","NORAD_CAT_ID":47287,"ELEMENT_SET_NO":999,"REV_AT_EPOCH":25461,"BSTAR":-0.00097607,"MEAN_MOTION_DOT":-3.38e-6,"MEAN_MOTION_DDOT":0}]
