ONEWEB-0125             
1 47271U 20100P   26091.48002853 -.00000380  00000+0 -10904-2 0  9990
2 47271  87.9020   5.8837 0001520  85.0454 275.0848 13.12442680254572
ONEWEB-0126             
1 47272U 20100Q   26091.50049697  .00000132  00000+0  33063-3 0  9996
2 47272  87.9013   5.9006 0001821  74.1944 285.9386 13.12445603254644
ONEWEB-0127             
1 47273U 20100R   26091.46648464 -.00000126  00000+0 -38577-3 0  9999
2 47273  87.9006   5.9101 0001877  74.2746 285.8590 13.12442969254665
ONEWEB-0128             
1 47274U 20100S   26091.48849155 -.00000504  00000+0 -14366-2 0  9991
2 47274  87.9007   5.9193 0002075  84.9645 275.1720 13.12443676254680
ONEWEB-0129             
1 47275U 20100T   26091.46817019 -.00000242  00000+0 -70790-3 0  9997
2 47275  87.9018   5.8894 0002445  52.1539 307.9810 13.12443757254617
ONEWEB-0130             
1 47276U 20100U   26091.49527346 -.00000091  00000+0 -28712-3 0  9991
2 47276  87.9019   5.8784 0001872  76.9052 283.2285 13.12445491254589
ONEWEB-0131             
1 47277U 20100V   26091.49188271 -.00000154  00000+0 -46450-3 0  9991
2 47277  87.9010   5.9056 0001833  78.1112 282.0222 13.12445493254627
ONEWEB-0132             
1 47278U 20100W   26091.52069615  .00000463  00000+0  12519-2 0  9995
2 47278  87.9009   5.8998 0001840  80.5702 279.5634 13.12444222254526
ONEWEB-0133             
1 47279U 20100X   26091.30878551 -.00000002  00000+0 -40192-4 0  9990
2 47279  87.9021   5.9091 0001893  81.8792 278.2551 13.12443452254659
ONEWEB-0134             
1 47280U 20100Y   26091.50713286  .00000386  00000+0  10389-2 0  9993
2 47280  87.9023   5.8668 0002086  77.7035 282.4327 13.12445973254659
ONEWEB-0135             
1 47281U 20100Z   26091.47832640 -.00000359  00000+0 -10325-2 0  9998
2 47281  87.9010   5.9053 0002121  79.7398 280.3970 13.12441933254674
ONEWEB-0136             
1 47282U 20100AA  26091.49697404  .00000030  00000+0  48566-4 0  9992
2 47282  87.9018   5.8766 0002138  76.3643 283.7723 13.12443845254607
ONEWEB-0137             
1 47283U 20100AB  26091.45462229  .00000276  00000+0  73260-3 0  9994
2 47283  87.9022   5.8915 0001653  76.7512 283.3800 13.12442148254505
ONEWEB-0138             
1 47284U 20100AC  26091.50882490  .00000346  00000+0  92693-3 0  9996
2 47284  87.9019   5.8890 0001981  75.2977 284.8371 13.12445751254598
ONEWEB-0139             
1 47285U 20100AD  26091.47338304 -.00000297  00000+0 -86184-3 0  9998
2 47285  87.9015   5.8834 0001825  77.1970 282.9363 13.12440940254667
ONEWEB-0140             
1 47286U 20100AE  26091.50374809  .00000285  00000+0  75778-3 0  9995
2 47286  87.9020   5.8664 0001853  83.2372 276.8967 13.12445363254633
ONEWEB-0141             
1 47287U 20100AF  26091.47310644 -.00000338  00000+0 -97607-3 0  9995
2 47287  87.9019   5.8785 0001534  72.7805 287.3491 13.12441005254612
